[{"OBJECT_NAME":"AEROCUBE 6B","OBJECT_ID":"2014-033AN","EPOCH":"2026-03-09T10:13:48.857088","MEAN_MOTION":14.98232474,"ECCENTRICITY":0.00374529,"INCLINATION":97.7129,"RA_OF_ASC_NODE":236.1645,"ARG_OF_PERICENTER":343.23,"MEAN_ANOMALY":16.7681,"EPHEMERIS_TYPE":0,"CLASSIFICATION_TYPE":"U","NORAD_CAT_ID":40046,"ELEMENT_SET_NO":999,"REV_AT_EPOCH":63181,"BSTAR":0.00066368498,"MEAN_MOTION_DOT":7.941e-5,"MEAN_MOTION_DDOT":0},{"OBJECT_NAME":"LEMUR-2-HCS-BAZUS","OBJECT_ID":"2026-004AB","EPOCH":"2026-03-09T22:34:53.137920","MEAN_MOTION":14.89206424,"ECCENTRICITY":0.000415,"INCLINATION":97.8037,"RA_OF_ASC_NODE":69.2538,"ARG_OF_PERICENTER":68.3694,"MEAN_ANOMALY":291.7965,"EPHEMERIS_TYPE":0,"CLASSIFICATION_TYPE":"U","NORAD_CAT_ID":67388,"ELEMENT_SET_NO":999,"REV_AT_EPOCH":853,"BSTAR":0.00072995491,"MEAN_MOTION_DOT":6.852e-5,"MEAN_MOTION_DDOT":0}]
